{
  "type": "FeatureCollection",
  "features": [
    {
      "type": "Feature",
      "properties": {
        "norad_id": 34121,
        "name": "COSMOS 2251 DEB",
        "group": "cosmos-2251-debris",
        "lat": -58.046848779423506,
        "lon": -61.29286225099834,
        "alt_km": 822.9252540037287,
        "timestamp": "2025-12-16T03:53:27.449025+00:00",
        "meta_object_name": "COSMOS 2251 DEB",
        "meta_object_id": "1993-036KS",
        "meta_epoch": "2025-12-15T08:00:16.299936",
        "meta_mean_motion": 13.91939726,
        "meta_eccentricity": 0.02404337,
        "meta_inclination": 73.993,
        "meta_ra_of_asc_node": 92.725,
        "meta_arg_of_pericenter": 297.6223,
        "meta_mean_anomaly": 115.9909,
        "meta_ephemeris_type": 0,
        "meta_classification_type": "U",
        "meta_norad_cat_id": 34121,
        "meta_element_set_no": 999,
        "meta_rev_at_epoch": 85161,
        "meta_bstar": 0.0010567071,
        "meta_mean_motion_dot": 1.681e-05,
        "meta_mean_motion_ddot": 0,
        "tle_line1": "1 34121U 93036KS  25349.33352199  .00001681  00000+0  10567-2 0  9996",
        "tle_line2": "2 34121  73.9930  92.7250 0240433 297.6223 115.9909 13.91939726851611"
      },
      "geometry": {
        "type": "Point",
        "coordinates": [
          -61.29286225099834,
          -58.046848779423506
        ]
      }
    },
    {
      "type": "Feature",
      "properties": {
        "norad_id": 34122,
        "name": "COSMOS 2251 DEB",
        "group": "cosmos-2251-debris",
        "lat": -43.984789483804114,
        "lon": 96.01085226592477,
        "alt_km": 647.8752978729271,
        "timestamp": "2025-12-16T03:53:27.449035+00:00",
        "meta_object_name": "COSMOS 2251 DEB",
        "meta_object_id": "1993-036KT",
        "meta_epoch": "2025-12-15T08:34:23.974752",
        "meta_mean_motion": 14.65086908,
        "meta_eccentricity": 0.00844566,
        "meta_inclination": 74.0356,
        "meta_ra_of_asc_node": 113.598,
        "meta_arg_of_pericenter": 9.7272,
        "meta_mean_anomaly": 21.3336,
        "meta_ephemeris_type": 0,
        "meta_classification_type": "U",
        "meta_norad_cat_id": 34122,
        "meta_element_set_no": 999,
        "meta_rev_at_epoch": 88723,
        "meta_bstar": 0.00075044885,
        "meta_mean_motion_dot": 4.216e-05,
        "meta_mean_motion_ddot": 0,
        "tle_line1": "1 34122U 93036KT  25349.35722193  .00004216  00000+0  75045-3 0  9994",
        "tle_line2": "2 34122  74.0356 113.5980 0084456   9.7272  21.3336 14.65086908887233"
      },
      "geometry": {
        "type": "Point",
        "coordinates": [
          96.01085226592477,
          -43.984789483804114
        ]
      }
    },
    {
      "type": "Feature",
      "properties": {
        "norad_id": 34127,
        "name": "COSMOS 2251 DEB",
        "group": "cosmos-2251-debris",
        "lat": 7.863836585735168,
        "lon": -144.5646063961591,
        "alt_km": 752.7940020146889,
        "timestamp": "2025-12-16T03:53:27.449045+00:00",
        "meta_object_name": "COSMOS 2251 DEB",
        "meta_object_id": "1993-036KY",
        "meta_epoch": "2025-12-15T03:45:09.950688",
        "meta_mean_motion": 14.31570499,
        "meta_eccentricity": 0.01149682,
        "meta_inclination": 74.1798,
        "meta_ra_of_asc_node": 39.4965,
        "meta_arg_of_pericenter": 239.1061,
        "meta_mean_anomaly": 152.5561,
        "meta_ephemeris_type": 0,
        "meta_classification_type": "U",
        "meta_norad_cat_id": 34127,
        "meta_element_set_no": 999,
        "meta_rev_at_epoch": 86806,
        "meta_bstar": 0.0010869909,
        "meta_mean_motion_dot": 3.085e-05,
        "meta_mean_motion_ddot": 0,
        "tle_line1": "1 34127U 93036KY  25349.15636517  .00003085  00000+0  10870-2 0  9998",
        "tle_line2": "2 34127  74.1798  39.4965 0114968 239.1061 152.5561 14.31570499868068"
      },
      "geometry": {
        "type": "Point",
        "coordinates": [
          -144.5646063961591,
          7.863836585735168
        ]
      }
    },
    {
      "type": "Feature",
      "properties": {
        "norad_id": 34128,
        "name": "COSMOS 2251 DEB",
        "group": "cosmos-2251-debris",
        "lat": 22.05905633567289,
        "lon": 103.06035217949464,
        "alt_km": 570.1209696661736,
        "timestamp": "2025-12-16T03:53:27.449055+00:00",
        "meta_object_name": "COSMOS 2251 DEB",
        "meta_object_id": "1993-036KZ",
        "meta_epoch": "2025-12-15T07:04:21.245376",
        "meta_mean_motion": 15.01278453,
        "meta_eccentricity": 0.00259368,
        "meta_inclination": 73.9992,
        "meta_ra_of_asc_node": 291.5076,
        "meta_arg_of_pericenter": 42.999,
        "meta_mean_anomaly": 107.45,
        "meta_ephemeris_type": 0,
        "meta_classification_type": "U",
        "meta_norad_cat_id": 34128,
        "meta_element_set_no": 999,
        "meta_rev_at_epoch": 89205,
        "meta_bstar": 0.0012666728,
        "meta_mean_motion_dot": 0.00016406,
        "meta_mean_motion_ddot": 0,
        "tle_line1": "1 34128U 93036KZ  25349.29469034  .00016406  00000+0  12667-2 0  9999",
        "tle_line2": "2 34128  73.9992 291.5076 0025936  42.9990 107.4500 15.01278453892054"
      },
      "geometry": {
        "type": "Point",
        "coordinates": [
          103.06035217949464,
          22.05905633567289
        ]
      }
    },
    {
      "type": "Feature",
      "properties": {
        "norad_id": 34129,
        "name": "COSMOS 2251 DEB",
        "group": "cosmos-2251-debris",
        "lat": 55.71788213257196,
        "lon": 127.99889549758512,
        "alt_km": 627.9899366927948,
        "timestamp": "2025-12-16T03:53:27.449065+00:00",
        "meta_object_name": "COSMOS 2251 DEB",
        "meta_object_id": "1993-036LA",
        "meta_epoch": "2025-12-15T07:49:33.475296",
        "meta_mean_motion": 14.75787372,
        "meta_eccentricity": 0.00330224,
        "meta_inclination": 74.0351,
        "meta_ra_of_asc_node": 334.4652,
        "meta_arg_of_pericenter": 55.1274,
        "meta_mean_anomaly": 305.2996,
        "meta_ephemeris_type": 0,
        "meta_classification_type": "U",
        "meta_norad_cat_id": 34129,
        "meta_element_set_no": 999,
        "meta_rev_at_epoch": 61336,
        "meta_bstar": 0.0008992066,
        "meta_mean_motion_dot": 6.188e-05,
        "meta_mean_motion_ddot": 0,
        "tle_line1": "1 34129U 93036LA  25349.32608189  .00006188  00000+0  89921-3 0  9994",
        "tle_line2": "2 34129  74.0351 334.4652 0033022  55.1274 305.2996 14.75787372613366"
      },
      "geometry": {
        "type": "Point",
        "coordinates": [
          127.99889549758512,
          55.71788213257196
        ]
      }
    },
    {
      "type": "Feature",
      "properties": {
        "norad_id": 34136,
        "name": "COSMOS 2251 DEB",
        "group": "cosmos-2251-debris",
        "lat": -30.517686517208915,
        "lon": 26.1598983153734,
        "alt_km": 693.7562298487201,
        "timestamp": "2025-12-16T03:53:27.449075+00:00",
        "meta_object_name": "COSMOS 2251 DEB",
        "meta_object_id": "1993-036LH",
        "meta_epoch": "2025-12-15T03:50:38.162688",
        "meta_mean_motion": 14.80100066,
        "meta_eccentricity": 0.00855992,
        "meta_inclination": 74.0212,
        "meta_ra_of_asc_node": 37.859,
        "meta_arg_of_pericenter": 160.1857,
        "meta_mean_anomaly": 231.2899,
        "meta_ephemeris_type": 0,
        "meta_classification_type": "U",
        "meta_norad_cat_id": 34136,
        "meta_element_set_no": 999,
        "meta_rev_at_epoch": 90046,
        "meta_bstar": 0.00030501911,
        "meta_mean_motion_dot": 2.425e-05,
        "meta_mean_motion_ddot": 0,
        "tle_line1": "1 34136U 93036LH  25349.16016392  .00002425  00000+0  30502-3 0  9994",
        "tle_line2": "2 34136  74.0212  37.8590 0085599 160.1857 231.2899 14.80100066900460"
      },
      "geometry": {
        "type": "Point",
        "coordinates": [
          26.1598983153734,
          -30.517686517208915
        ]
      }
    },
    {
      "type": "Feature",
      "properties": {
        "norad_id": 34139,
        "name": "COSMOS 2251 DEB",
        "group": "cosmos-2251-debris",
        "lat": 28.05383934327339,
        "lon": 58.76288387309783,
        "alt_km": 723.8049705542171,
        "timestamp": "2025-12-16T03:53:27.449086+00:00",
        "meta_object_name": "COSMOS 2251 DEB",
        "meta_object_id": "1993-036LL",
        "meta_epoch": "2025-12-15T03:02:37.595328",
        "meta_mean_motion": 14.59102453,
        "meta_eccentricity": 0.00424677,
        "meta_inclination": 74.0309,
        "meta_ra_of_asc_node": 249.5131,
        "meta_arg_of_pericenter": 320.3287,
        "meta_mean_anomaly": 154.4229,
        "meta_ephemeris_type": 0,
        "meta_classification_type": "U",
        "meta_norad_cat_id": 34139,
        "meta_element_set_no": 999,
        "meta_rev_at_epoch": 88184,
        "meta_bstar": 0.00083376706,
        "meta_mean_motion_dot": 3.944e-05,
        "meta_mean_motion_ddot": 0,
        "tle_line1": "1 34139U 93036LL  25349.12682402  .00003944  00000+0  83377-3 0  9999",
        "tle_line2": "2 34139  74.0309 249.5131 0042467 320.3287 154.4229 14.59102453881848"
      },
      "geometry": {
        "type": "Point",
        "coordinates": [
          58.76288387309783,
          28.05383934327339
        ]
      }
    }
  ]
}